[{"OBJECT_NAME":"STARLINK-3594","OBJECT_ID":"2022-022AV","EPOCH":"2026-03-09T04:52:32.118528","MEAN_MOTION":15.08861203,"ECCENTRICITY":0.00014175,"INCLINATION":53.2192,"RA_OF_ASC_NODE":1.3024,"ARG_OF_PERICENTER":91.6222,"MEAN_ANOMALY":268.4932,"EPHEMERIS_TYPE":0,"CLASSIFICATION_TYPE":"U","NORAD_CAT_ID":51895,"ELEMENT_SET_NO":999,"REV_AT_EPOCH":22317,"BSTAR":0.000112297,"MEAN_MOTION_DOT":1.501e-5,"MEAN_MOTION_DDOT":0},{"OBJECT_NAME":"FENGYUN 1C DEB","OBJECT_ID":"1999-025DEQ","EPOCH":"2026-03-08T16:18:11.400768","MEAN_MOTION":15.03063896,"ECCENTRICITY":0.0041192,"INCLINATION":98.802,"RA_OF_ASC_NODE":149.1421,"ARG_OF_PERICENTER":81.4798,"MEAN_ANOMALY":279.1089,"EPHEMERIS_TYPE":0,"CLASSIFICATION_TYPE":"U","NORAD_CAT_ID":33655,"ELEMENT_SET_NO":999,"REV_AT_EPOCH":97846,"BSTAR":0.0032042236,"MEAN_MOTION_DOT":0.0004416,"MEAN_MOTION_DDOT":0}]
